1 42892U 17042BV  19242.64246131  .00003438  00000-0  87545-4 0  9995
2 42892  96.9294 121.6730 0009630 310.4594  49.5812 15.40159859119209
1 42892U 17042BV  19242.90234500  .00003850  00000-0  97798-4 0  9990
2 42892  96.9293 121.9192 0009603 309.3427  50.6969 15.40162587119247
1 42892U 17042BV  19243.74696365  .00006245  00000-0  15737-3 0  9997
2 42892  96.9289 122.7193 0009541 305.8150  54.2210 15.40175139119377
1 42892U 17042BV  19243.87690412  .00006780  00000-0  17065-3 0  9998
2 42892  96.9289 122.8424 0009527 305.2273  54.8082 15.40177792119391
1 42892U 17042BV  19244.91642437  .00008219  00000-0  20634-3 0  9993
2 42892  96.9284 123.8272 0009444 300.9065  59.1253 15.40193210119556
1 42892U 17042BV  19245.11133284  .00008146  00000-0  20450-3 0  9996
2 42892  96.9283 124.0119 0009436 300.0613  59.9698 15.40196503119581
1 42892U 17042BV  19245.63108671  .00008247  00000-0  20695-3 0  9998
2 42892  96.9282 124.5044 0009370 297.7758  62.2539 15.40206131119660
1 42892U 17042BV  19246.15083778  .00006924  00000-0  17405-3 0  9991
2 42892  96.9281 124.9968 0009311 295.4588  64.5695 15.40213189119747
1 42892U 17042BV  19246.86549196  .00005007  00000-0  12638-3 0  9994
2 42892  96.9280 125.6739 0009290 292.3018  67.7244 15.40220270119856
1 42892U 17042BV  19247.45020689  .00004580  00000-0  11575-3 0  9995
2 42892  96.9281 126.2279 0009267 289.7511  70.2737 15.40225632119948
1 42892U 17042BV  19247.71007939  .00004561  00000-0  11526-3 0  9992
2 42892  96.9281 126.4741 0009253 288.6124  71.4118 15.40228621119988
1 42892U 17042BV  19248.61963001  .00005160  00000-0  13011-3 0  9990
2 42892  96.9281 127.3359 0009212 284.5418  75.4808 15.40238973120128
1 42892U 17042BV  19249.78904470  .00004870  00000-0  12286-3 0  9994
2 42892  96.9281 128.4439 0009174 279.3911  80.6299 15.40249860120305
1 42892U 17042BV  19250.89348460  .00004211  00000-0  10647-3 0  9997
2 42892  96.9281 129.4903 0009153 274.3351  85.6851 15.40258877120477
1 42892U 17042BV  19251.80301795  .00004351  00000-0  10991-3 0  9996
2 42892  96.9281 130.3521 0009123 270.3258  89.6944 15.40267583120610
1 42892U 17042BV  19252.19281668  .00004557  00000-0  11500-3 0  9990
2 42892  96.9282 130.7214 0009120 268.8483  91.1719 15.40271484120672
1 42892U 17042BV  19252.64758077  .00004491  00000-0  11336-3 0  9997
2 42892  96.9281 131.1522 0009117 266.9414  93.0790 15.40275195120748
1 42892U 17042BV  19253.62206988  .00004619  00000-0  11649-3 0  9994
2 42892  96.9279 132.0755 0009132 262.6161  97.4049 15.40285139120892
1 42892U 17042BV  19254.72648395  .00004084  00000-0  10319-3 0  9997
2 42892  96.9277 133.1218 0009131 257.7159 102.3066 15.40294857121069
1 42892U 17042BV  19255.70096203  .00003545  00000-0  89798-4 0  9990
2 42892  96.9274 134.0450 0009171 253.3059 106.7182 15.40301996121216
1 42892U 17042BV  19256.15571658  .00003786  00000-0  95769-4 0  9994
2 42892  96.9272 134.4758 0009186 251.2303 108.7948 15.40306386121281
1 42892U 17042BV  19256.74040005  .00003893  00000-0  98390-4 0  9998
2 42892  96.9270 135.0296 0009198 248.5784 111.4483 15.40310969121375
1 42892U 17042BV  19257.45501148  .00003854  00000-0  97430-4 0  9998
2 42892  96.9267 135.7065 0009223 245.4278 114.6009 15.40315578121487
1 42892U 17042BV  19257.90976302  .00003677  00000-0  93037-4 0  9998
2 42892  96.9265 136.1373 0009234 243.4707 116.5594 15.40318328121553
1 42892U 17042BV  19258.62436984  .00003773  00000-0  95376-4 0  9990
2 42892  96.9262 136.8143 0009275 240.4130 119.6194 15.40324216121669
1 42892U 17042BV  19259.72875744  .00004279  00000-0  10787-3 0  9997
2 42892  96.9259 137.8604 0009326 235.5672 124.4694 15.40333940121833
1 42892U 17042BV  19260.70321224  .00004193  00000-0  10572-3 0  9993
2 42892  96.9256 138.7835 0009399 231.5038 128.5367 15.40341333121981
1 42892U 17042BV  19261.15795613  .00003994  00000-0  10078-3 0  9999
2 42892  96.9254 139.2143 0009437 229.4674 130.5753 15.40344550122057
1 42892U 17042BV  19261.22291900  .00004744  00000-0  11935-3 0  9994
2 42892  96.9254 139.2759 0009442 229.2531 130.7898 15.40347082122062
1 42892U 17042BV  19262.26232954  .00003599  00000-0  90970-4 0  9997
2 42892  96.9254 140.2605 0009516 224.8417 135.2063 15.40352379122227
1 42892U 17042BV  19262.78203297  .00003580  00000-0  90509-4 0  9990
2 42892  96.9253 140.7528 0009553 222.6548 137.3959 15.40356078122303
1 42892U 17042BV  19263.43165986  .00003616  00000-0  91370-4 0  9992
2 42892  96.9253 141.3681 0009633 219.7817 140.2725 15.40361263122402
1 42892U 17042BV  19263.88639793  .00003560  00000-0  89982-4 0  9997
2 42892  96.9253 141.7988 0009659 217.9158 142.1411 15.40364448122470
1 42892U 17042BV  19264.73090865  .00003643  00000-0  92009-4 0  9999
2 42892  96.9254 142.5988 0009724 214.3787 145.6832 15.40370866122603
1 42892U 17042BV  19265.90022580  .00004077  00000-0  10270-3 0  9999
2 42892  96.9254 143.7065 0009852 209.6740 150.3949 15.40380106122789
1 42892U 17042BV  19266.16007294  .00004164  00000-0  10485-3 0  9998
2 42892  96.9254 143.9526 0009884 208.6174 151.4532 15.40382504122827
1 42892U 17042BV  19266.80968972  .00004327  00000-0  10885-3 0  9993
2 42892  96.9254 144.5680 0009945 206.0500 154.0248 15.40387783122926
1 42892U 17042BV  19267.45930385  .00004653  00000-0  11689-3 0  9997
2 42892  96.9254 145.1835 0010017 203.4271 156.6521 15.40393766123025
1 42892U 17042BV  19267.91403236  .00004999  00000-0  12540-3 0  9998
2 42892  96.9254 145.6144 0010075 201.5600 158.5225 15.40398452123098
1 42892U 17042BV  19268.75852525  .00004566  00000-0  11468-3 0  9998
2 42892  96.9253 146.4143 0010159 198.2843 161.8041 15.40404786123225
1 42892U 17042BV  19268.88844678  .00004728  00000-0  11869-3 0  9997
2 42892  96.9253 146.5374 0010174 197.7690 162.3203 15.40406319123245
1 42892U 17042BV  19269.73293465  .00004761  00000-0  11947-3 0  9998
2 42892  96.9249 147.3372 0010261 194.4034 165.6923 15.40414143123373
1 42892U 17042BV  19270.12269742  .00004874  00000-0  12224-3 0  9998
2 42892  96.9249 147.7064 0010306 192.8989 167.1996 15.40417547123431
1 42892U 17042BV  19270.90221961  .00006107  00000-0  15262-3 0  9991
2 42892  96.9246 148.4447 0010408 189.9723 170.1320 15.40426907123555
1 42892U 17042BV  19271.22701842  .00007333  00000-0  18281-3 0  9994
2 42892  96.9244 148.7523 0010443 188.7819 171.3248 15.40433410123608
1 42892U 17042BV  19271.61677670  .00008101  00000-0  20170-3 0  9992
2 42892  96.9243 149.1215 0010485 187.2493 172.8605 15.40437954123664
1 42892U 17042BV  19272.72108348  .00006516  00000-0  16257-3 0  9995
2 42892  96.9238 150.1675 0010629 183.1647 176.9535 15.40449750123839
1 42892U 17042BV  19273.89033554  .00006551  00000-0  16331-3 0  9992
2 42892  96.9231 151.2749 0010805 178.6031 181.5248 15.40468128124012
1 42892U 17042BV  19274.08520973  .00006461  00000-0  16107-3 0  9991
2 42892  96.9230 151.4594 0010835 177.8503 182.2793 15.40470958124049
1 42892U 17042BV  19274.73478744  .00007349  00000-0  18287-3 0  9998
2 42892  96.9231 152.0747 0010874 175.5667 184.5678 15.40481890124141
1 42892U 17042BV  19275.12453262  .00006067  00000-0  15130-3 0  9990
2 42892  96.9231 152.4439 0010903 174.1612 185.9765 15.40485517124200
1 42892U 17042BV  19275.64419132  .00005442  00000-0  13590-3 0  9999
2 42892  96.9231 152.9361 0010961 172.2564 187.8855 15.40490326124281
1 42892U 17042BV  19276.16384718  .00005512  00000-0  13759-3 0  9993
2 42892  96.9228 153.4283 0011038 170.3651 189.7810 15.40497327124367
1 42892U 17042BV  19276.61854515  .00005328  00000-0  13303-3 0  9990
2 42892  96.9229 153.8590 0011083 168.6590 191.4909 15.40502003124430
1 42892U 17042BV  19277.20315472  .00004940  00000-0  12345-3 0  9994
2 42892  96.9228 154.4128 0011150 166.6354 193.5191 15.40507269124529
1 42892U 17042BV  19277.59289324  .00005152  00000-0  12866-3 0  9996
2 42892  96.9229 154.7820 0011199 165.2529 194.9047 15.40511657124581
1 42892U 17042BV  19278.43732353  .00005004  00000-0  12497-3 0  9991
2 42892  96.9229 155.5819 0011330 162.3209 197.8435 15.40519495124714
1 42892U 17042BV  19278.89201469  .00005132  00000-0  12810-3 0  9991
2 42892  96.9229 156.0126 0011374 160.7646 199.4033 15.40524455124787
1 42892U 17042BV  19279.73643769  .00004915  00000-0  12272-3 0  9998
2 42892  96.9229 156.8124 0011461 157.8084 202.3662 15.40532558124913
1 42892U 17042BV  19280.64581131  .00004924  00000-0  12290-3 0  9994
2 42892  96.9229 157.6737 0011574 154.6417 205.5401 15.40541462125058
1 42892U 17042BV  19281.16545037  .00004756  00000-0  11876-3 0  9999
2 42892  96.9228 158.1658 0011660 152.9238 207.2620 15.40546757125136
1 42892U 17042BV  19281.87995198  .00004353  00000-0  10882-3 0  9993
2 42892  96.9227 158.8426 0011714 150.3817 209.8096 15.40552902125246
1 42892U 17042BV  19282.20472437  .00005127  00000-0  12781-3 0  9997
2 42892  96.9227 159.1501 0011743 149.2244 210.9694 15.40557874125292
1 42892U 17042BV  19282.72435832  .00005453  00000-0  13579-3 0  9990
2 42892  96.9226 159.6423 0011800 147.4457 212.7520 15.40563958125376
1 42892U 17042BV  19283.24399041  .00005205  00000-0  12969-3 0  9996
2 42892  96.9226 160.1344 0011863 145.7564 214.4451 15.40568963125456
1 42892U 17042BV  19283.82857353  .00005665  00000-0  14092-3 0  9994
2 42892  96.9225 160.6881 0011930 143.8169 216.3888 15.40576722125548
1 42892U 17042BV  19284.73791968  .00005509  00000-0  13705-3 0  9991
2 42892  96.9223 161.5493 0012022 140.7667 219.4454 15.40587669125687
1 42892U 17042BV  19285.84211730  .00005416  00000-0  13469-3 0  9992
2 42892  96.9220 162.5951 0012133 137.0747 223.1450 15.40600573125852
1 42892U 17042BV  19285.90706976  .00004602  00000-0  11474-3 0  9990
2 42892  96.9220 162.6566 0012139 136.8777 223.3423 15.40599826125862
1 42892U 17042BV  19286.88135461  .00005089  00000-0  12664-3 0  9995
2 42892  96.9216 163.5793 0012225 133.6589 226.5674 15.40611004126015
1 42892U 17042BV  19287.14116273  .00004655  00000-0  11600-3 0  9992
2 42892  96.9215 163.8254 0012255 132.8186 227.4094 15.40613085126057
